NORAD_CAT_ID,OBJECT_NAME,OBJECT_TYPE,EPOCH,MEAN_MOTION,ECCENTRICITY,INCLINATION,RA_OF_ASC_NODE,ARG_OF_PERICENTER,MEAN_ANOMALY,BSTAR,MEAN_MOTION_DOT,MEAN_MOTION_DDOT,TLE_LINE0,TLE_LINE1,TLE_LINE2,SEMIMAJOR_AXIS,PERIOD,APOGEE,PERIGEE,DECAYED
56478.0,STARLINK-6041,PAYLOAD,2024-01-28 02:33:22,14.98332011,0.0002547,69.9995,269.8899,259.0637,101.0236,3.2069e-05,2.9e-06,0.0,0 STARLINK-6041,1 56478U 23064AG  24028.10651297  .00000290  00000-0  32069-4 0  9997,2 56478  69.9995 269.8899 0002547 259.0637 101.0236 14.98332011 40526,6950.187,96.107,573.822,570.281,0.0
56478.0,STARLINK-6041,PAYLOAD,2024-01-28 21:46:59,14.98329334,0.0002452,69.9996,267.8697,255.3585,104.7302,-4.3842e-05,-6.16e-06,0.0,0 STARLINK-6041,1 56478U 23064AG  24028.90763587 -.00000616  00000-0 -43842-4 0  9996,2 56478  69.9996 267.8697 0002452 255.3585 104.7302 14.98329334 40288,6950.195,96.107,573.764,570.356,0.0
56478.0,STARLINK-6041,PAYLOAD,2024-01-29 00:59:15,14.98329997,0.0002439,69.9996,267.533,255.2357,104.8532,-3.4196e-05,-5.01e-06,0.0,0 STARLINK-6041,1 56478U 23064AG  24029.04115510 -.00000501  00000-0 -34196-4 0  9994,2 56478  69.9996 267.5330 0002439 255.2357 104.8532 14.98329997 40304,6950.193,96.107,573.753,570.363,0.0
56478.0,STARLINK-6041,PAYLOAD,2024-01-30 01:01:16,14.98333821,0.0002421,69.9995,265.0082,254.4779,105.6113,2.89e-05,2.52e-06,0.0,0 STARLINK-6041,1 56478U 23064AG  24030.04254894  .00000252  00000-0  28900-4 0  9992,2 56478  69.9995 265.0082 0002421 254.4779 105.6113 14.98333821 40811,6950.181,96.107,573.729,570.363,0.0
56478.0,STARLINK-6041,PAYLOAD,2024-01-30 20:14:53,14.98327351,0.0002745,69.9983,262.9862,266.6673,93.4172,-3.1279e-05,-4.66e-06,0.0,0 STARLINK-6041,1 56478U 23064AG  24030.84367431 -.00000466  00000-0 -31279-4 0  9994,2 56478  69.9983 262.9862 0002745 266.6673  93.4172 14.98327351 40930,6950.201,96.107,573.974,570.158,0.0
56478.0,STARLINK-6041,PAYLOAD,2024-01-30 21:51:01,14.98327534,0.0002688,69.9984,262.818,264.8675,95.2177,-2.4989e-05,-3.91e-06,0.0,0 STARLINK-6041,1 56478U 23064AG  24030.91043402 -.00000391  00000-0 -24989-4 0  9998,2 56478  69.9984 262.8180 0002688 264.8675  95.2177 14.98327534 40580,6950.201,96.107,573.934,570.197,0.0
56478.0,STARLINK-6041,PAYLOAD,2024-01-31 13:52:22,14.98326419,0.000256,69.9988,261.1353,263.7074,96.3793,-6.2573e-06,-1.68e-06,0.0,0 STARLINK-6041,1 56478U 23064AG  24031.57803367 -.00000168  00000-0 -62573-5 0  9999,2 56478  69.9988 261.1353 0002560 263.7074  96.3793 14.98326419 40686,6950.204,96.107,573.848,570.29,0.0
56478.0,STARLINK-6041,PAYLOAD,2024-02-01 01:05:18,14.98326492,0.0002563,69.9988,259.9572,263.8966,96.1901,-4.3462e-06,-1.45e-06,0.0,0 STARLINK-6041,1 56478U 23064AG  24032.04535445 -.00000145  00000-0 -43462-5 0  9992,2 56478  69.9988 259.9572 0002563 263.8966  96.1901 14.98326492 41117,6950.204,96.107,573.85,570.287,0.0
56478.0,STARLINK-6041,PAYLOAD,2024-02-02 01:07:19,14.98331915,0.0002577,69.9986,257.4324,264.8089,95.2776,4.8284e-05,4.83e-06,0.0,0 STARLINK-6041,1 56478U 23064AG  24033.04674995  .00000483  00000-0  48284-4 0  9996,2 56478  69.9986 257.4324 0002577 264.8089  95.2776 14.98331915 41267,6950.187,96.107,573.843,570.261,0.0
56478.0,STARLINK-6041,PAYLOAD,2024-02-02 21:57:04,14.98329226,0.0002529,69.9987,255.2445,265.887,94.2,3.0126e-05,2.67e-06,0.0,0 STARLINK-6041,1 56478U 23064AG  24033.91463199  .00000267  00000-0  30126-4 0  9990,2 56478  69.9987 255.2445 0002529 265.8870  94.2000 14.98329226 41030,6950.195,96.107,573.818,570.303,0.0
56478.0,STARLINK-6041,PAYLOAD,2024-02-03 01:09:20,14.98329794,0.0002548,69.9987,254.9082,266.6387,93.4481,3.4822e-05,3.23e-06,0.0,0 STARLINK-6041,1 56478U 23064AG  24034.04815150  .00000323  00000-0  34822-4 0  9993,2 56478  69.9987 254.9082 0002548 266.6387  93.4481 14.98329794 41412,6950.194,96.107,573.829,570.288,0.0
56478.0,STARLINK-6041,PAYLOAD,2024-02-03 21:59:05,14.98331562,0.0002512,69.9988,252.7199,269.711,90.3761,-7.9543e-06,-1.88e-06,0.0,0 STARLINK-6041,1 56478U 23064AG  24034.91603080 -.00000188  00000-0 -79543-5 0  9997,2 56478  69.9988 252.7199 0002512 269.7110  90.3761 14.98331562 41184,6950.188,96.107,573.799,570.307,0.0
56478.0,STARLINK-6041,PAYLOAD,2024-02-03 23:35:13,14.98331618,0.0002515,69.9987,252.5516,269.8323,90.2547,-7.0278e-06,-1.77e-06,0.0,0 STARLINK-6041,1 56478U 23064AG  24034.98279065 -.00000177  00000-0 -70278-5 0  9990,2 56478  69.9987 252.5516 0002515 269.8323  90.2547 14.98331618 41198,6950.188,96.107,573.801,570.305,0.0
56478.0,STARLINK-6041,PAYLOAD,2024-02-04 20:24:57,14.98330196,0.0002566,69.9985,250.3629,269.7146,90.3719,-6.3647e-06,-1.69e-06,0.0,0 STARLINK-6041,1 56478U 23064AG  24035.85067041 -.00000169  00000-0 -63647-5 0  9999,2 56478  69.9985 250.3629 0002566 269.7146  90.3719 14.98330196 41681,6950.192,96.107,573.841,570.274,0.0
56478.0,STARLINK-6041,PAYLOAD,2024-02-04 22:01:05,14.9833035,0.0002565,69.9985,250.1946,269.7463,90.3402,-4.5827e-06,-1.48e-06,0.0,0 STARLINK-6041,1 56478U 23064AG  24035.91743020 -.00000148  00000-0 -45827-5 0  9991,2 56478  69.9985 250.1946 0002565 269.7463  90.3402 14.98330350 41335,6950.192,96.107,573.84,570.274,0.0
56478.0,STARLINK-6041,PAYLOAD,2024-02-05 07:37:54,14.98330139,0.0002594,69.9984,249.1846,270.524,89.5622,-1.4131e-05,-2.62e-06,0.0,0 STARLINK-6041,1 56478U 23064AG  24036.31799030 -.00000262  00000-0 -14131-4 0  9998,2 56478  69.9984 249.1846 0002594 270.5240  89.5622 14.98330139 41391,6950.192,96.107,573.86,570.255,0.0
56478.0,STARLINK-6041,PAYLOAD,2024-02-05 22:03:06,14.98329912,0.0002626,69.9983,247.6694,270.1084,89.9774,-1.0987e-05,-2.24e-06,0.0,0 STARLINK-6041,1 56478U 23064AG  24036.91883014 -.00000224  00000-0 -10987-4 0  9993,2 56478  69.9983 247.6694 0002626 270.1084  89.9774 14.98329912 41481,6950.193,96.107,573.883,570.233,0.0
56478.0,STARLINK-6041,PAYLOAD,2024-02-05 23:39:14,14.983302,0.0002625,69.9984,247.5011,270.1899,89.8959,-7.5576e-06,-1.83e-06,0.0,0 STARLINK-6041,1 56478U 23064AG  24036.98558984 -.00000183  00000-0 -75576-5 0  9995,2 56478  69.9984 247.5011 0002625 270.1899  89.8959 14.98330200 41854,6950.192,96.107,573.882,570.233,0.0
56478.0,STARLINK-6041,PAYLOAD,2024-02-06 14:04:27,14.98331532,0.0002655,69.9982,245.9863,270.4552,89.6302,1.1177e-05,4e-07,0.0,0 STARLINK-6041,1 56478U 23064AG  24037.58642806  .00000040  00000-0  11177-4 0  9995,2 56478  69.9982 245.9863 0002655 270.4552  89.6302 14.98331532 41580,6950.188,96.107,573.898,570.208,0.0
56478.0,STARLINK-6041,PAYLOAD,2024-02-06 22:05:07,14.98332282,0.0002648,69.9983,245.1446,270.5941,89.4914,2.0457e-05,1.51e-06,0.0,0 STARLINK-6041,1 56478U 23064AG  24037.92022689  .00000151  00000-0  20457-4 0  9998,2 56478  69.9983 245.1446 0002648 270.5941  89.4914 14.98332282 41631,6950.186,96.107,573.891,570.21,0.0
56478.0,STARLINK-6041,PAYLOAD,2024-02-06 23:41:15,14.98332534,0.0002645,69.9983,244.9762,270.5696,89.516,2.3122e-05,1.83e-06,0.0,0 STARLINK-6041,1 56478U 23064AG  24037.98698654  .00000183  00000-0  23122-4 0  9992,2 56478  69.9983 244.9762 0002645 270.5696  89.5160 14.98332534 42009,6950.185,96.107,573.888,570.212,0.0
56478.0,STARLINK-6041,PAYLOAD,2024-02-07 14:06:28,14.9832954,0.000261,69.9984,243.4614,271.054,89.032,8.0137e-06,3e-08,0.0,0 STARLINK-6041,1 56478U 23064AG  24038.58782840  .00000003  00000-0  80137-5 0  9991,2 56478  69.9984 243.4614 0002610 271.0540  89.0320 14.98329540 41731,6950.194,96.107,573.873,570.245,0.0
56478.0,STARLINK-6041,PAYLOAD,2024-02-07 22:07:08,14.98329424,0.0002603,69.9986,242.6199,270.1371,89.9489,3.1381e-06,-5.6e-07,0.0,0 STARLINK-6041,1 56478U 23064AG  24038.92162848 -.00000056  00000-0  31381-5 0  9995,2 56478  69.9986 242.6199 0002603 270.1371  89.9489 14.98329424 41787,6950.195,96.107,573.869,570.251,0.0
56478.0,STARLINK-6041,PAYLOAD,2024-02-07 23:43:16,14.98329502,0.0002604,69.9986,242.4516,270.3166,89.7695,3.6264e-06,-5e-07,0.0,0 STARLINK-6041,1 56478U 23064AG  24038.98838841 -.00000050  00000-0  36264-5 0  9993,2 56478  69.9986 242.4516 0002604 270.3166  89.7695 14.98329502 42159,6950.194,96.107,573.869,570.25,0.0
56478.0,STARLINK-6041,PAYLOAD,2024-02-08 14:08:29,14.98331029,0.00026,69.9986,240.9362,273.3011,86.7851,-1.7153e-05,-2.98e-06,0.0,0 STARLINK-6041,1 56478U 23064AG  24039.58922799 -.00000298  00000-0 -17153-4 0  9996,2 56478  69.9986 240.9362 0002600 273.3011  86.7851 14.98331029 41886,6950.19,96.107,573.862,570.248,0.0
56478.0,STARLINK-6041,PAYLOAD,2024-02-08 22:09:09,14.98330194,0.0002631,69.9987,240.0945,273.5805,86.5053,-2.5321e-05,-3.95e-06,0.0,0 STARLINK-6041,1 56478U 23064AG  24039.92302849 -.00000395  00000-0 -25321-4 0  9996,2 56478  69.9987 240.0945 0002631 273.5805  86.5053 14.98330194 41932,6950.192,96.107,573.886,570.229,0.0
56478.0,STARLINK-6041,PAYLOAD,2024-02-08 23:45:17,14.98331041,0.0002634,69.9987,239.9261,273.9277,86.1581,-1.584e-05,-2.82e-06,0.0,0 STARLINK-6041,1 56478U 23064AG  24039.98978767 -.00000282  00000-0 -15840-4 0  9990,2 56478  69.9987 239.9261 0002634 273.9277  86.1581 14.98331041 42306,6950.19,96.107,573.885,570.224,0.0
56478.0,STARLINK-6041,PAYLOAD,2024-02-09 14:10:30,14.98330976,0.000267,69.9987,238.411,274.4814,85.604,1.7257e-05,1.13e-06,0.0,0 STARLINK-6041,1 56478U 23064AG  24040.59062612  .00000113  00000-0  17257-4 0  9997,2 56478  69.9987 238.4110 0002670 274.4814  85.6040 14.98330976 42036,6950.19,96.107,573.911,570.199,0.0
56478.0,STARLINK-6041,PAYLOAD,2024-02-09 23:47:18,14.98332664,0.0002678,69.9989,237.4011,274.7081,85.3772,3.3762e-05,3.1e-06,0.0,0 STARLINK-6041,1 56478U 23064AG  24040.99118409  .00000310  00000-0  33762-4 0  9995,2 56478  69.9989 237.4011 0002678 274.7081  85.3772 14.98332664 42455,6950.185,96.107,573.911,570.188,0.0
56478.0,STARLINK-6041,PAYLOAD,2024-02-10 14:12:31,14.98327417,0.0002615,69.9991,235.8857,270.6325,89.4534,-1.0804e-05,-2.22e-06,0.0,0 STARLINK-6041,1 56478U 23064AG  24041.59202820 -.00000222  00000-0 -10804-4 0  9999,2 56478  69.9991 235.8857 0002615 270.6325  89.4534 14.98327417 42186,6950.201,96.107,573.883,570.248,0.0
